#aV2020  4 12  0  0  0.00000000     288 DD+AD WGS84 FIT  NGA
## 2101      0.00000000   300.00000000 58951 0.0000000000000
+   32     1  2  3  4  5  6  7  8  9 10 11 12 13 14 15 16 17
+         18 19 20 21 22 23 24 25 26 27 28 29 30 31 32  0  0
+          0  0  0  0  0  0  0  0  0  0  0  0  0  0  0  0  0
+          0  0  0  0  0  0  0  0  0  0  0  0  0  0  0  0  0
+          0  0  0  0  0  0  0  0  0  0  0  0  0  0  0  0  0
++         2  2  2  2  2  2  2  2  2  2  2  2  2  2  2  2  2
++         2  2  2  2  2  2  2  2  2  2  2  2  2  2  2  0  0
++         0  0  0  0  0  0  0  0  0  0  0  0  0  0  0  0  0
++         0  0  0  0  0  0  0  0  0  0  0  0  0  0  0  0  0
++         0  0  0  0  0  0  0  0  0  0  0  0  0  0  0  0  0
%c cc cc ccc ccc cccc cccc cccc cccc ccccc ccccc ccccc ccccc
%c cc cc ccc ccc cccc cccc cccc cccc ccccc ccccc ccccc ccccc
%f  0.0000000  0.000000000  0.00000000000  0.000000000000000
%f  0.0000000  0.000000000  0.00000000000  0.000000000000000
%i    0    0    0    0      0      0      0      0         0
%i    0    0    0    0      0      0      0      0         0
/*      NGA, ST. LOUIS,MO.                                  
/*   EPHEMERIS COMPUTED FROM 2 DAYS OF DATA                 
/*   EPOCHA v5 SMOOTHER                                     
/*   G1762 IERS2010 SATAF SATAPC                            
*  2020  4 12 20 15  0.00000000
P  1  13606.319447 -12583.222446  18677.224760   -355.801960                    
V  1   -584.582633  24270.521556  16914.233248     -0.105754                    
P  2 -13360.961732 -11691.101025 -19137.736107   -438.367078                    
V  2   1564.527336 -25663.590513  14058.360539     -0.064495                    
P  3  22994.198053 -12957.995605  -2473.319835   -143.932524                    
V  3   3971.144699   1149.387426  31707.963161     -0.108849                    
P  4  15592.663999  -6397.760917 -20524.154113    -75.300124                    
V  4  20513.689685  16130.093927  10522.933610     -0.051445                    
P  5 -21378.195994  -1673.530897 -15930.653900    -10.747255                    
V  5  16785.332599 -10922.931007 -21363.386491     -0.006585                    
P  6  -7748.587103 -21257.168456 -13824.104759   -251.342261                    
V  6   3070.111315 -17446.844832  25052.806829     -0.077210                    
P  7   5579.637816 -25195.800175  -4775.448459   -257.211637                    
V  7   2850.036328   6797.453257 -31120.346720     -0.085995                    
P  8  22451.284236   3302.696404  14027.210348    -30.420483                    
V  8  13766.006583  11205.625951 -24453.259088     -0.013076                    
P  9   4986.518098 -14953.556328 -21426.632892   -196.465019                    
V  9  22896.525295  14535.657740  -4844.704297     -0.077418                    
P 10   1466.832845  15753.465611  21386.073295   -308.203977                    
V 10 -24566.092425  11169.946657  -6798.059754     -0.121064                    
P 11  16128.236594  -2348.845156  20451.010674   -307.021230                    
V 11   9604.327671  25605.658037  -4828.182148      0.107714                    
P 12 -24272.961592  10514.595377  -1181.789032    129.975860                    
V 12  -2015.707170  -1766.717660  32208.262484     -0.043124                    
P 13 -22203.373969 -11802.942113   8569.417835      1.610524                    
V 13  -6690.805132  -9055.405846 -29311.121017      0.030451                    
P 14  17799.360519  19194.462714   5391.818722    -20.013848                    
V 14  -6557.672861  -2030.485284  30655.230790      0.024848                    
P 15 -22736.864744   -614.640255  13705.994697   -238.424464                    
V 15 -14407.392001 -10907.224644 -23470.973077      0.026197                    
P 16  21907.816368   2752.674471 -15303.558898   -145.874432                    
V 16 -17176.336051   7819.598763 -23076.381306     -0.043801                    
P 17 -10688.670336 -20088.405658  14158.761284    247.709847                    
V 17  14519.556749   9339.701012  24913.752698      0.061828                    
P 18  -8502.371384  23568.079279  -8800.784074    154.027372                    
V 18  -1401.404507 -11365.056491 -29115.500720      0.136377                    
P 19 -16763.313524 -19559.152679   6189.707331   -172.934846                    
V 19   7638.033412   3713.756320  30925.271472      0.051327                    
P 20  -9312.261377  19545.012204  15162.910482    527.814751                    
V 20 -17863.697435   8429.706748 -21935.767564     -0.000308                    
P 21  -2940.499848  26137.710732  -3814.738658    -15.049802                    
V 21  -2849.777346  -5805.607042 -30911.835125      0.050086                    
P 22  24244.290589  -8344.747521   6881.757479   -784.806638                    
V 22  -5482.640526   7486.562218  29470.079393      0.005648                    
P 23  11856.818683 -10471.372064 -21024.921641   -122.596052                    
V 23  22913.358748  15302.642617   4810.175877      0.029691                    
P 24 -14294.728447  10926.538870  19225.875671    -11.604443                    
V 24  -1383.238790 -25053.627064  13439.558433     -0.006040                    
P 25 -17744.468148  16626.687203 -10587.654260     -3.556618                    
V 25 -12954.394965   3466.191266  28042.727484      0.024590                    
P 26  13680.896596   9654.382245 -20695.577880    186.266614                    
V 26 -22843.301305  12863.627599  -8893.226689      0.073882                    
P 27  23337.429924  12205.061018   4511.958662   -265.111941                    
V 27   3727.672402   4892.392427 -31241.992038     -0.104859                    
P 28  -1624.839260 -15361.552297  22206.536135    725.855192                    
V 28  25130.981739  -9124.681750  -4456.506180     -0.028471                    
P 29  -8009.971726  12356.119419 -22143.055363    -79.521854                    
V 29 -22022.577758 -17207.135866  -1656.650618     -0.091742                    
P 30  -1536.637097 -25737.908595   5932.914274   -196.955897                    
V 30   4349.076205  -7126.054392 -30167.204016     -0.084894                    
P 31   8764.819312  19692.181007 -15246.659958    -35.610772                    
V 31  -4318.299915  19146.766110  22750.964506     -0.024699                    
P 32  12592.212058  19537.934993  13060.796332    258.199682                    
V 32 -14868.006886  -7299.251891  25259.682578      0.084425                    
EOF
